$$SOE
2460721.500000000, A.D. 2025-Feb-15 00:00:00.0000, 1.490707094373187E+08, -1.896859433173130E+08, -8.895502294749334E+07,
2460728.500000000, A.D. 2025-Feb-22 00:00:00.0000, 1.603903080243192E+08, -1.811568445926096E+08, -8.626342642683780E+07,
2460735.500000000, A.D. 2025-Mar-01 00:00:00.0000, 1.712506735867902E+08, -1.721091187264035E+08, -8.332484495215791E+07,
2460742.500000000, A.D. 2025-Mar-08 00:00:00.0000, 1.816196828031898E+08, -1.625676251804941E+08, -8.014718736754538E+07,
2460749.500000000, A.D. 2025-Mar-15 00:00:00.0000, 1.914669541305195E+08, -1.525591618605675E+08, -7.673928812352994E+07,
2460756.500000000, A.D. 2025-Mar-22 00:00:00.0000, 2.007640216275889E+08, -1.421123243999191E+08, -7.311086202260605E+07,
2460763.500000000, A.D. 2025-Mar-29 00:00:00.0000, 2.094844942035575E+08, -1.312573514883908E+08, -6.927245143604858E+07,
2460770.500000000, A.D. 2025-Apr-05 00:00:00.0000, 2.176041984470008E+08, -1.200259551584881E+08, -6.523536645454023E+07,
2460777.500000000, A.D. 2025-Apr-12 00:00:00.0000, 2.251013012908995E+08, -1.084511382509464E+08, -6.101161861543118E+07,
2460784.500000000, A.D. 2025-Apr-19 00:00:00.0000, 2.319564109015888E+08, -9.656700247529146E+07, -5.661384920266300E+07,
2460791.500000000, A.D. 2025-Apr-26 00:00:00.0000, 2.381526550658367E+08, -8.440854994095489E+07, -5.205525318987665E+07,
2460798.500000000, A.D. 2025-May-03 00:00:00.0000, 2.436757366377370E+08, -7.201148087948516E+07, -4.734949992479154E+07,
2460805.500000000, A.D. 2025-May-10 00:00:00.0000, 2.485139659701103E+08, -5.941199028473963E+07, -4.251065167693736E+07,
2460812.500000000, A.D. 2025-May-17 00:00:00.0000, 2.526582706980590E+08, -4.664656617630546E+07, -3.755308117692050E+07,
2460819.500000000, A.D. 2025-May-24 00:00:00.0000, 2.561021837800125E+08, -3.375179207147276E+07, -3.249138926058580E+07,
2460826.500000000, A.D. 2025-May-31 00:00:00.0000, 2.588418112986206E+08, -2.076415568465300E+07, -2.734032366848211E+07,
2460833.500000000, A.D. 2025-Jun-07 00:00:00.0000, 2.608757810380033E+08, -7.719864723507846E+06, -2.211469983056016E+07,
2460840.500000000, A.D. 2025-Jun-14 00:00:00.0000, 2.622051711838260E+08, 5.345327736981804E+06, -1.682932434906004E+07,
2460847.500000000, A.D. 2025-Jun-21 00:00:00.0000, 2.628334222589580E+08, 1.839628350221339E+07, -1.149892232052272E+07,
2460854.500000000, A.D. 2025-Jun-28 00:00:00.0000, 2.627662374447780E+08, 3.139862569219660E+07, -6.138069279964907E+06,
2460861.500000000, A.D. 2025-Jul-05 00:00:00.0000, 2.620114718933598E+08, 4.431887263954096E+07, -7.611279692134615E+05,
2460868.500000000, A.D. 2025-Jul-12 00:00:00.0000, 2.605790120005121E+08, 5.712455786479398E+07, 4.617809723150115E+06,
2460875.500000000, A.D. 2025-Jul-19 00:00:00.0000, 2.584806469612374E+08, 6.978433525117031E+07, 9.984975319067892E+06,
2460882.500000000, A.D. 2025-Jul-26 00:00:00.0000, 2.557299348602344E+08, 8.226806931711197E+07, 1.532697062739114E+07,
2460889.500000000, A.D. 2025-Aug-02 00:00:00.0000, 2.523420652736344E+08, 9.454691081213956E+07, 2.063080887719179E+07,
2460896.500000000, A.D. 2025-Aug-09 00:00:00.0000, 2.483337201794775E+08, 1.065933580670611E+08, 2.588395013425970E+07,
2460903.500000000, A.D. 2025-Aug-16 00:00:00.0000, 2.437229349068316E+08, 1.183813046844033E+08, 3.107433110890136E+07,
2460910.500000000, A.D. 2025-Aug-23 00:00:00.0000, 2.385289609347008E+08, 1.298860743673385E+08, 3.619038953818429E+07,
2460917.500000000, A.D. 2025-Aug-30 00:00:00.0000, 2.327721322018612E+08, 1.410844444555856E+08, 4.122108344441354E+07,
2460924.500000000, A.D. 2025-Sep-06 00:00:00.0000, 2.264737346117488E+08, 1.519546600880363E+08, 4.615590579338094E+07,
2460931.500000000, A.D. 2025-Sep-13 00:00:00.0000, 2.196558779768507E+08, 1.624764375077258E+08, 5.098489485044263E+07,
2460938.500000000, A.D. 2025-Sep-20 00:00:00.0000, 2.123413744343780E+08, 1.726309558824917E+08, 5.569864017073174E+07,
2460945.500000000, A.D. 2025-Sep-27 00:00:00.0000, 2.045536249594230E+08, 1.824008417617300E+08, 6.028828475518541E+07,
2460952.500000000, A.D. 2025-Oct-04 00:00:00.0000, 1.963165123678498E+08, 1.917701477137665E+08, 6.474552398171189E+07,
2460959.500000000, A.D. 2025-Oct-11 00:00:00.0000, 1.876543007140086E+08, 2.007243251781635E+08, 6.906260164965662E+07,
2460966.500000000, A.D. 2025-Oct-18 00:00:00.0000, 1.785915415235735E+08, 2.092501921892959E+08, 7.323230346185207E+07,
2460973.500000000, A.D. 2025-Oct-25 00:00:00.0000, 1.691529870481306E+08, 2.173358968569526E+08, 7.724794829091647E+07,
2460980.500000000, A.D. 2025-Nov-01 00:00:00.0000, 1.593635105336310E+08, 2.249708774316247E+08, 8.110337756726380E+07,
2460987.500000000, A.D. 2025-Nov-08 00:00:00.0000, 1.492480334100650E+08, 2.321458196684338E+08, 8.479294310027112E+07,
2460994.500000000, A.D. 2025-Nov-15 00:00:00.0000, 1.388314593562509E+08, 2.388526121086066E+08, 8.831149360610239E+07,
2461001.500000000, A.D. 2025-Nov-22 00:00:00.0000, 1.281386153947755E+08, 2.450843001107748E+08, 9.165436018972988E+07,
2461008.500000000, A.D. 2025-Nov-29 00:00:00.0000, 1.171941995777934E+08, 2.508350403139007E+08, 9.481734112925816E+07,
2461015.500000000, A.D. 2025-Dec-06 00:00:00.0000, 1.060227326634032E+08, 2.561000558680403E+08, 9.779668636958988E+07,
2461022.500000000, A.D. 2025-Dec-13 00:00:00.0000, 9.464851385423799E+07, 2.608755894837416E+08, 1.005890816008381E+08,
2461029.500000000, A.D. 2025-Dec-20 00:00:00.0000, 8.309558373544858E+07, 2.651588557073962E+08, 1.031916318731705E+08,
2461036.500000000, A.D. 2025-Dec-27 00:00:00.0000, 7.138769298722583E+07, 2.689479953258239E+08, 1.056018452188138E+08,
2461043.500000000, A.D. 2026-Jan-03 00:00:00.0000, 5.954827505113416E+07, 2.722420315389529E+08, 1.078176164992471E+08,
2461050.500000000, A.D. 2026-Jan-10 00:00:00.0000, 4.760042250325503E+07, 2.750408274342910E+08, 1.098372115290988E+08,
2461057.500000000, A.D. 2026-Jan-17 00:00:00.0000, 3.556686701998541E+07, 2.773450448436184E+08, 1.116592515463067E+08,
2461064.500000000, A.D. 2026-Jan-24 00:00:00.0000, 2.346996267843928E+07, 2.791561047396353E+08, 1.132826981037769E+08,
2461071.500000000, A.D. 2026-Jan-31 00:00:00.0000, 1.133167229126099E+07, 2.804761492679570E+08, 1.147068384448410E+08,
2461078.500000000, A.D. 2026-Feb-07 00:00:00.0000, -8.264434722262011E+05, 2.813080054317411E+08, 1.159312714040066E+08,
2461085.500000000, A.D. 2026-Feb-14 00:00:00.0000, -1.298323421998510E+07, 2.816551504637852E+08, 1.169558938490802E+08,
2461092.500000000, A.D. 2026-Feb-21 00:00:00.0000, -2.511796511801995E+07, 2.815216794934008E+08, 1.177808877082195E+08,
2461099.500000000, A.D. 2026-Feb-28 00:00:00.0000, -3.721032066325939E+07, 2.809122766776450E+08, 1.184067078019879E+08,
2461106.500000000, A.D. 2026-Mar-07 00:00:00.0000, -4.924040924308769E+07, 2.798321878418689E+08, 1.188340705234343E+08,
2461113.500000000, A.D. 2026-Mar-14 00:00:00.0000, -6.118876593506605E+07, 2.782871922662553E+08, 1.190639429204154E+08,
2461120.500000000, A.D. 2026-Mar-21 00:00:00.0000, -7.303635198606189E+07, 2.762835764916369E+08, 1.190975322618040E+08,
2461127.500000000, A.D. 2026-Mar-28 00:00:00.0000, -8.476455317244609E+07, 2.738281111446733E+08, 1.189362763606673E+08,
2461134.500000000, A.D. 2026-Apr-04 00:00:00.0000, -9.635517782289575E+07, 2.709280297701187E+08, 1.185818346235993E+08,
2461141.500000000, A.D. 2026-Apr-11 00:00:00.0000, -1.077904543986763E+08, 2.675910092579997E+08, 1.180360797624289E+08,
2461148.500000000, A.D. 2026-Apr-18 00:00:00.0000, -1.190530286280341E+08, 2.638251518052219E+08, 1.173010901434179E+08,
2461155.500000000, A.D. 2026-Apr-25 00:00:00.0000, -1.301259602911954E+08, 2.596389683708366E+08, 1.163791427594905E+08,
2461162.500000000, A.D. 2026-May-02 00:00:00.0000, -1.409927197540058E+08, 2.550413635380605E+08, 1.152727068056695E+08,
2461169.500000000, A.D. 2026-May-09 00:00:00.0000, -1.516371842413338E+08, 2.500416216563023E+08, 1.139844378211481E+08,
2461176.500000000, A.D. 2026-May-16 00:00:00.0000, -1.620436335783233E+08, 2.446493943350251E+08, 1.125171723488933E+08,
2461183.500000000, A.D. 2026-May-23 00:00:00.0000, -1.721967454511386E+08, 2.388746902390568E+08, 1.108739231639754E+08,
2461190.500000000, A.D. 2026-May-30 00:00:00.0000, -1.820815923714301E+08, 2.327278674345122E+08, 1.090578752671826E+08,
2461197.500000000, A.D. 2026-Jun-06 00:00:00.0000, -1.916836407582080E+08, 2.262196249499443E+08, 1.070723823921934E+08,
2461204.500000000, A.D. 2026-Jun-13 00:00:00.0000, -2.009887485536789E+08, 2.193609936844609E+08, 1.049209636885285E+08,
2461211.500000000, A.D. 2026-Jun-20 00:00:00.0000, -2.099831619610186E+08, 2.121633295257718E+08, 1.026073008514741E+08,
2461218.500000000, A.D. 2026-Jun-27 00:00:00.0000, -2.186535130807241E+08, 2.046383082880183E+08, 1.001352358140569E+08,
2461225.500000000, A.D. 2026-Jul-04 00:00:00.0000, -2.269868185111750E+08, 1.967979216369595E+08, 9.750876891534337E+07,
2461232.500000000, A.D. 2026-Jul-11 00:00:00.0000, -2.349704787241299E+08, 1.886544738053339E+08, 9.473205748550627E+07,
2461239.500000000, A.D. 2026-Jul-18 00:00:00.0000, -2.425922781877668E+08, 1.802205790577742E+08, 9.180941481704903E+07,
2461246.500000000, A.D. 2026-Jul-25 00:00:00.0000, -2.498403862772559E+08, 1.715091598419851E+08, 8.874530949708039E+07,
2461253.500000000, A.D. 2026-Aug-01 00:00:00.0000, -2.567033589877544E+08, 1.625334455119876E+08, 8.554436506957403E+07,
2461260.500000000, A.D. 2026-Aug-08 00:00:00.0000, -2.631701412963668E+08, 1.533069715207366E+08, 8.221135998201753E+07,
2461267.500000000, A.D. 2026-Aug-15 00:00:00.0000, -2.692300698179684E+08, 1.438435794639197E+08, 7.875122779151568E+07,
2461274.500000000, A.D. 2026-Aug-22 00:00:00.0000, -2.748728765761442E+08, 1.341574191247885E+08, 7.516905777571434E+07,
2461281.500000000, A.D. 2026-Aug-29 00:00:00.0000, -2.800886962431599E+08, 1.242629510753568E+08, 7.147009602304155E+07,
2461288.500000000, A.D. 2026-Sep-05 00:00:00.0000, -2.848680747782090E+08, 1.141749468975329E+08, 6.765974654801786E+07,
$$EOE